{
    "links": {
        "self": "http://www.neowsapp.com/rest/v1/neo/3673980?api_key=iIulBulltgU6a56xZRHN4H3l9WmuAYTsLGpBGhQ2"
    },
    "id": "3673980",
    "neo_reference_id": "3673980",
    "name": "(2014 MC18)",
    "designation": "2014 MC18",
    "nasa_jpl_url": "http://ssd.jpl.nasa.gov/sbdb.cgi?sstr=3673980",
    "absolute_magnitude_h": 21.5,
    "estimated_diameter": {
        "kilometers": {
            "estimated_diameter_min": 0.1332155667,
            "estimated_diameter_max": 0.2978790628
        },
        "meters": {
            "estimated_diameter_min": 133.2155666981,
            "estimated_diameter_max": 297.8790627982
        },
        "miles": {
            "estimated_diameter_min": 0.0827762899,
            "estimated_diameter_max": 0.1850934111
        },
        "feet": {
            "estimated_diameter_min": 437.0589598459,
            "estimated_diameter_max": 977.2935443908
        }
    },
    "is_potentially_hazardous_asteroid": false,
    "close_approach_data": [
        {
            "close_approach_date": "2014-06-25",
            "close_approach_date_full": "2014-Jun-25 05:17",
            "epoch_date_close_approach": 1403673420000,
            "relative_velocity": {
                "kilometers_per_second": "5.9656038722",
                "kilometers_per_hour": "21476.1739400151",
                "miles_per_hour": "13344.4593017833"
            },
            "miss_distance": {
                "astronomical": "0.2953390073",
                "lunar": "114.8868738397",
                "kilometers": "44182086.419994451",
                "miles": "27453475.4668113838"
            },
            "orbiting_body": "Earth"
        }
    ],
    "orbital_data": {
        "orbit_id": "7",
        "orbit_determination_date": "2017-04-06 08:39:56",
        "first_observation_date": "2014-06-24",
        "last_observation_date": "2014-07-19",
        "data_arc_in_days": 25,
        "observations_used": 20,
        "orbit_uncertainty": "8",
        "minimum_orbit_intersection": ".208888",
        "jupiter_tisserand_invariant": "3.607",
        "epoch_osculation": "2456833.5",
        "eccentricity": ".4283623322765273",
        "semi_major_axis": "2.112825947390038",
        "inclination": "6.55017673471965",
        "ascending_node_longitude": "314.3217905716442",
        "orbital_period": "1121.744656712289",
        "perihelion_distance": "1.207770896871678",
        "perihelion_argument": "315.1086986268215",
        "aphelion_distance": "3.017880997908398",
        "perihelion_time": "2456841.132629562339",
        "mean_anomaly": "357.5504704872004",
        "mean_motion": ".3209286514946464",
        "equinox": "J2000",
        "orbit_class": {
            "orbit_class_type": "AMO",
            "orbit_class_description": "Near-Earth asteroid orbits similar to that of 1221 Amor",
            "orbit_class_range": "1.017 AU < q (perihelion) < 1.3 AU"
        }
    },
    "is_sentry_object": false
}